[{"OBJECT_NAME":"STARLINK-6302","OBJECT_ID":"2023-061Y","EPOCH":"2026-03-09T22:00:01.999584","MEAN_MOTION":15.06824042,"ECCENTRICITY":0.00020207,"INCLINATION":42.9991,"RA_OF_ASC_NODE":183.5074,"ARG_OF_PERICENTER":276.9763,"MEAN_ANOMALY":155.4619,"EPHEMERIS_TYPE":0,"CLASSIFICATION_TYPE":"U","NORAD_CAT_ID":56396,"ELEMENT_SET_NO":999,"REV_AT_EPOCH":578,"BSTAR":0.0019317193,"MEAN_MOTION_DOT":0.00029184,"MEAN_MOTION_DDOT":0},{"OBJECT_NAME":"QPS-SAR-7 (TSUKUYOMI-II)","OBJECT_ID":"2024-066F","EPOCH":"2026-03-09T22:44:25.024704","MEAN_MOTION":15.07520552,"ECCENTRICITY":3.06e-5,"INCLINATION":45.6053,"RA_OF_ASC_NODE":45.6252,"ARG_OF_PERICENTER":310.671,"MEAN_ANOMALY":49.4148,"EPHEMERIS_TYPE":0,"CLASSIFICATION_TYPE":"U","NORAD_CAT_ID":59447,"ELEMENT_SET_NO":999,"REV_AT_EPOCH":10524,"BSTAR":0.00063712098,"MEAN_MOTION_DOT":9.59e-5,"MEAN_MOTION_DDOT":0}]
